CALSPHERE 1             
1 00900U 64063C   26063.05781041  .00000813  00000+0  82060-3 0  9991
2 00900  90.2155  69.3221 0023492 249.1337 173.1775 13.76489454 56963
CALSPHERE 2             
1 00902U 64063E   26063.08418090  .00000042  00000+0  49853-4 0  9995
2 00902  90.2280  73.3050 0018954 166.6075 262.9285 13.52891417842054
LCS 1                   
1 01361U 65034C   26063.15484911  .00000012  00000+0  53251-3 0  9990
2 01361  32.1424  66.4013 0013179 110.1880 250.0036  9.89309922199487
TEMPSAT 1               
1 01512U 65065E   26062.41344112  .00000030  00000+0  42277-4 0  9995
2 01512  89.9924 212.5896 0069644 184.2343 202.0847 13.33588777945956
CALSPHERE 4A            
1 01520U 65065H   26063.16234376  .00000130  00000+0  23152-3 0  9998
2 01520  89.9042 123.5233 0070728  41.6498 347.4416 13.36258046948689
OPS 5712 (P/L 160)      
1 02826U 67053A   26063.14164215  .00012062  00000+0  17540-2 0  9999
2 02826  69.9172 295.4561 0004526 228.8466 131.2290 14.76074539 50727
OPS 5712 (P/L 153)      
1 02874U 67053H   26063.14356617  .00000064  00000+0  84609-4 0  9992
2 02874  69.9764 340.4570 0008968 315.5237  44.5148 13.96810537992115
RIGIDSPHERE 2 (LCS 4)   
1 05398U 71067E   26063.10331972  .00001082  00000+0  34723-3 0  9991
2 05398  87.6269   7.9580 0058230 220.0065 139.6838 14.37732129858780
COSMOS 2493 (SKRL-756 1)
1 39490U 13078A   26063.15010031  .00005759  00000+0  44256-3 0  9991
2 39490  82.4163   3.9021 0011370 235.2681 124.7473 15.01524544662198
COSMOS 2494 (SKRL-756 2)
1 39491U 13078B   26063.13445457  .00006678  00000+0  47843-3 0  9990
2 39491  82.4158 353.7429 0015330 195.3169 164.7595 15.04146849663010
