[{"OBJECT_NAME":"CALSPHERE 1","OBJECT_ID":"1964-063C","EPOCH":"2026-03-04T01:23:14.819424","MEAN_MOTION":13.76489454,"ECCENTRICITY":0.0023492,"INCLINATION":90.2155,"RA_OF_ASC_NODE":69.3221,"ARG_OF_PERICENTER":249.1337,"MEAN_ANOMALY":173.1775,"EPHEMERIS_TYPE":0,"CLASSIFICATION_TYPE":"U","NORAD_CAT_ID":900,"ELEMENT_SET_NO":999,"REV_AT_EPOCH":5696,"BSTAR":0.0008206,"MEAN_MOTION_DOT":8.13e-6,"MEAN_MOTION_DDOT":0},{"OBJECT_NAME":"CALSPHERE 2","OBJECT_ID":"1964-063E","EPOCH":"2026-03-04T02:01:13.229760","MEAN_MOTION":13.52891417,"ECCENTRICITY":0.0018954,"INCLINATION":90.228,"RA_OF_ASC_NODE":73.305,"ARG_OF_PERICENTER":166.6075,"MEAN_ANOMALY":262.9285,"EPHEMERIS_TYPE":0,"CLASSIFICATION_TYPE":"U","NORAD_CAT_ID":902,"ELEMENT_SET_NO":999,"REV_AT_EPOCH":84205,"BSTAR":4.9853e-5,"MEAN_MOTION_DOT":4.2e-7,"MEAN_MOTION_DDOT":0},{"OBJECT_NAME":"LCS 1","OBJECT_ID":"1965-034C","EPOCH":"2026-03-04T03:42:58.963104","MEAN_MOTION":9.89309922,"ECCENTRICITY":0.0013179,"INCLINATION":32.1424,"RA_OF_ASC_NODE":66.4013,"ARG_OF_PERICENTER":110.188,"MEAN_ANOMALY":250.0036,"EPHEMERIS_TYPE":0,"CLASSIFICATION_TYPE":"U","NORAD_CAT_ID":1361,"ELEMENT_SET_NO":999,"REV_AT_EPOCH":19948,"BSTAR":0.00053251,"MEAN_MOTION_DOT":1.2e-7,"MEAN_MOTION_DDOT":0},{"OBJECT_NAME":"TEMPSAT 1","OBJECT_ID":"1965-065E","EPOCH":"2026-03-03T09:55:21.312768","MEAN_MOTION":13.33588777,"ECCENTRICITY":0.0069644,"INCLINATION":89.9924,"RA_OF_ASC_NODE":212.5896,"ARG_OF_PERICENTER":184.2343,"MEAN_ANOMALY":202.0847,"EPHEMERIS_TYPE":0,"CLASSIFICATION_TYPE":"U","NORAD_CAT_ID":1512,"ELEMENT_SET_NO":999,"REV_AT_EPOCH":94595,"BSTAR":4.2276862e-5,"MEAN_MOTION_DOT":3.0e-7,"MEAN_MOTION_DDOT":0},{"OBJECT_NAME":"CALSPHERE 4A","OBJECT_ID":"1965-065H","EPOCH":"2026-03-04T03:53:46.500864","MEAN_MOTION":13.36258046,"ECCENTRICITY":0.0070728,"INCLINATION":89.9042,"RA_OF_ASC_NODE":123.5233,"ARG_OF_PERICENTER":41.6498,"MEAN_ANOMALY":347.4416,"EPHEMERIS_TYPE":0,"CLASSIFICATION_TYPE":"U","NORAD_CAT_ID":1520,"ELEMENT_SET_NO":999,"REV_AT_EPOCH":94868,"BSTAR":0.00023152,"MEAN_MOTION_DOT":1.3e-6,"MEAN_MOTION_DDOT":0},{"OBJECT_NAME":"OPS 5712 (P/L 160)","OBJECT_ID":"1967-053A","EPOCH":"2026-03-04T03:23:57.881760","MEAN_MOTION":14.76074539,"ECCENTRICITY":0.0004526,"INCLINATION":69.9172,"RA_OF_ASC_NODE":295.4561,"ARG_OF_PERICENTER":228.8466,"MEAN_ANOMALY":131.229,"EPHEMERIS_TYPE":0,"CLASSIFICATION_TYPE":"U","NORAD_CAT_ID":2826,"ELEMENT_SET_NO":999,"REV_AT_EPOCH":5072,"BSTAR":0.001754,"MEAN_MOTION_DOT":0.00012062,"MEAN_MOTION_DDOT":0},{"OBJECT_NAME":"OPS 5712 (P/L 153)","OBJECT_ID":"1967-053H","EPOCH":"2026-03-04T03:26:44.117088","MEAN_MOTION":13.96810537,"ECCENTRICITY":0.0008968,"INCLINATION":69.9764,"RA_OF_ASC_NODE":340.457,"ARG_OF_PERICENTER":315.5237,"MEAN_ANOMALY":44.5148,"EPHEMERIS_TYPE":0,"CLASSIFICATION_TYPE":"U","NORAD_CAT_ID":2874,"ELEMENT_SET_NO":999,"REV_AT_EPOCH":99211,"BSTAR":8.4609e-5,"MEAN_MOTION_DOT":6.4e-7,"MEAN_MOTION_DDOT":0},{"OBJECT_NAME":"RIGIDSPHERE 2 (LCS 4)","OBJECT_ID":"1971-067E","EPOCH":"2026-03-04T02:28:46.823808","MEAN_MOTION":14.37732129,"ECCENTRICITY":0.005823,"INCLINATION":87.6269,"RA_OF_ASC_NODE":7.958,"ARG_OF_PERICENTER":220.0065,"MEAN_ANOMALY":139.6838,"EPHEMERIS_TYPE":0,"CLASSIFICATION_TYPE":"U","NORAD_CAT_ID":5398,"ELEMENT_SET_NO":999,"REV_AT_EPOCH":85878,"BSTAR":0.00034723,"MEAN_MOTION_DOT":1.082e-5,"MEAN_MOTION_DDOT":0},{"OBJECT_NAME":"COSMOS 2493 (SKRL-756 1)","OBJECT_ID":"2013-078A","EPOCH":"2026-03-04T03:36:08.666784","MEAN_MOTION":15.01524544,"ECCENTRICITY":0.001137,"INCLINATION":82.4163,"RA_OF_ASC_NODE":3.9021,"ARG_OF_PERICENTER":235.2681,"MEAN_ANOMALY":124.7473,"EPHEMERIS_TYPE":0,"CLASSIFICATION_TYPE":"U","NORAD_CAT_ID":39490,"ELEMENT_SET_NO":999,"REV_AT_EPOCH":66219,"BSTAR":0.00044256,"MEAN_MOTION_DOT":5.759e-5,"MEAN_MOTION_DDOT":0},{"OBJECT_NAME":"COSMOS 2494 (SKRL-756 2)","OBJECT_ID":"2013-078B","EPOCH":"2026-03-04T03:13:36.874848","MEAN_MOTION":15.04146849,"ECCENTRICITY":0.001533,"INCLINATION":82.4158,"RA_OF_ASC_NODE":353.7429,"ARG_OF_PERICENTER":195.3169,"MEAN_ANOMALY":164.7595,"EPHEMERIS_TYPE":0,"CLASSIFICATION_TYPE":"U","NORAD_CAT_ID":39491,"ELEMENT_SET_NO":999,"REV_AT_EPOCH":66301,"BSTAR":0.00047843,"MEAN_MOTION_DOT":6.678e-5,"MEAN_MOTION_DDOT":0}]
